GLOBALSTAR M035         
1 25851U 99037A   26007.58595338 -.00000053  00000+0  39539-3 0  9990
2 25851  51.9983 319.1356 0013733 315.6169 215.2192 11.04540800118841
GLOBALSTAR M032         
1 25852U 99037B   26007.61428466 -.00000119  00000+0 -16674-2 0  9990
2 25852  51.9949 130.1654 0013418 149.3186 210.8401 11.19074752157679
GLOBALSTAR M051         
1 25853U 99037C   26007.92180426 -.00000085  00000+0 -32531-3 0  9999
2 25853  51.9793 266.9959 0000863  57.6281 302.4613 11.42200072155785
GLOBALSTAR M030         
1 25854U 99037D   26007.82412055 -.00000110  00000+0 -74957-3 0  9992
2 25854  51.9895  60.3197 0003397  60.0972 300.0182 11.55112616173694
GLOBALSTAR M048         
1 25872U 99041A   26007.80486170 -.00000076  00000+0 -17301-3 0  9995
2 25872  51.9336 210.2213 0013203 173.2883 200.0836 11.33861836148197
GLOBALSTAR M026         
1 25873U 99041B   26007.90905373 -.00000133  00000+0 -25555-2 0  9991
2 25873  52.0023  74.2114 0001706 230.7593 300.4080 11.06844122171150
GLOBALSTAR M043         
1 25874U 99041C   26007.61501250 -.00000135  00000+0 -19970-2 0  9992
2 25874  51.9438 326.4603 0013451 302.0299 228.8127 11.25698359145897
GLOBALSTAR M028         
1 25875U 99041D   26007.51832415 -.00000071  00000+0  18946-3 0  9993
2 25875  51.9642 303.7797 0063194 154.7847 205.6121 12.50593701215740
